COMMENT,ORIGINATOR,NORAD_CAT_ID,OBJECT_NAME,OBJECT_TYPE,CLASSIFICATION_TYPE,INTLDES,EPOCH,EPOCH_MICROSECONDS,MEAN_MOTION,ECCENTRICITY,INCLINATION,RA_OF_ASC_NODE,ARG_OF_PERICENTER,MEAN_ANOMALY,EPHEMERIS_TYPE,ELEMENT_SET_NO,REV_AT_EPOCH,BSTAR,MEAN_MOTION_DOT,MEAN_MOTION_DDOT,FILE,TLE_LINE0,TLE_LINE1,TLE_LINE2,OBJECT_ID,OBJECT_NUMBER,SEMIMAJOR_AXIS,PERIOD,APOGEE,PERIGEE,DECAYED
"GENERATED VIA SPACETRACK.ORG API","18 SPCS","48888","SPACEBEE-103","PAYLOAD","U","21059K","2023-07-14 15:07:51","330144","15.33738937","0.0006868","97.597","333.382","172.106","188.0291","0","999","11360","0.0012046","0.00039404","0","3957949","0 SPACEBEE-103","1 48888U 21059K   23195.63045521  .00039404  00000-0  12046-2 0  9994","2 48888  97.5970 333.3820 0006868 172.1060 188.0291 15.33738937113601","2021-059K","48888","6842.806","93.888","469.370","459.971","0"
"GENERATED VIA SPACETRACK.ORG API","18 SPCS","48888","SPACEBEE-103","PAYLOAD","U","21059K","2023-07-16 03:08:35","801952","15.33846862","0.0006858","97.5976","334.9248","168.0767","192.0639","0","999","11383","0.00096359","0.00031579","0","3959156","0 SPACEBEE-103","1 48888U 21059K   23197.13096993  .00031579  00000-0  96359-3 0  9995","2 48888  97.5976 334.9248 0006858 168.0767 192.0639 15.33846862113838","2021-059K","48888","6842.485","93.882","469.042","459.657","0"
"GENERATED VIA SPACETRACK.ORG API","18 SPCS","48888","SPACEBEE-103","PAYLOAD","U","21059K","2023-07-17 08:53:26","789280","15.33939243","0.0006841","97.5982","336.1992","163.7841","196.3621","0","999","11402","0.0012625","0.00041575","0","3960206","0 SPACEBEE-103","1 48888U 21059K   23198.37044895  .00041575  00000-0  12625-2 0  9996","2 48888  97.5982 336.1992 0006841 163.7841 196.3621 15.33939243114028","2021-059K","48888","6842.210","93.876","468.756","459.394","0"
"GENERATED VIA SPACETRACK.ORG API","18 SPCS","48888","SPACEBEE-103","PAYLOAD","U","21059K","2023-07-18 14:38:10","893984","15.34039706","0.0006813","97.5985","337.4741","160.4807","199.6697","0","999","11421","0.001224","0.00040427","0","3961468","0 SPACEBEE-103","1 48888U 21059K   23199.60984831  .00040427  00000-0  12240-2 0  9994","2 48888  97.5985 337.4741 0006813 160.4807 199.6697 15.34039706114218","2021-059K","48888","6841.911","93.870","468.438","459.115","0"
"GENERATED VIA SPACETRACK.ORG API","18 SPCS","48888","SPACEBEE-103","PAYLOAD","U","21059K","2023-07-20 15:09:53","31456","15.34177985","0.000677","97.599","339.5545","153.6584","206.5004","0","999","11452","0.00097454","0.00032277","0","3962748","0 SPACEBEE-103","1 48888U 21059K   23201.63186379  .00032277  00000-0  97454-3 0  9997","2 48888  97.5990 339.5545 0006770 153.6584 206.5004 15.34177985114523","2021-059K","48888","6841.500","93.861","467.997","458.733","0"
"GENERATED VIA SPACETRACK.ORG API","18 SPCS","48888","SPACEBEE-103","PAYLOAD","U","21059K","2023-07-21 08:23:00","342528","15.34233038","0.0006682","97.5991","340.2928","152.1098","208.0503","0","999","11463","0.0011609","0.00038563","0","3963664","0 SPACEBEE-103","1 48888U 21059K   23202.34930952  .00038563  00000-0  11609-2 0  9991","2 48888  97.5991 340.2928 0006682 152.1098 208.0503 15.34233038114639","2021-059K","48888","6841.337","93.858","467.773","458.630","0"
"GENERATED VIA SPACETRACK.ORG API","18 SPCS","48888","SPACEBEE-103","PAYLOAD","U","21059K","2023-07-24 08:22:56","928","15.34461836","0.0006515","97.5991","343.3809","143.3165","216.8524","0","999","11509","0.0011315","0.00037853","0","3963756","0 SPACEBEE-103","1 48888U 21059K   23205.34925927  .00037853  00000-0  11315-2 0  9995","2 48888  97.5991 343.3809 0006515 143.3165 216.8524 15.34461836115093","2021-059K","48888","6840.656","93.844","466.978","458.065","0"
"GENERATED VIA SPACETRACK.ORG API","18 SPCS","48888","SPACEBEE-103","PAYLOAD","U","21059K","2023-07-25 07:51:27","998496","15.34534642","0.0006525","97.599","344.388","139.882","220.2905","0","999","11524","0.0010747","0.00036023","0","3963759","0 SPACEBEE-103","1 48888U 21059K   23206.32740739  .00036023  00000-0  10747-2 0  9996","2 48888  97.5990 344.3880 0006525 139.8820 220.2905 15.34534642115246","2021-059K","48888","6840.440","93.840","466.768","457.842","0"
"GENERATED VIA SPACETRACK.ORG API","18 SPCS","48888","SPACEBEE-103","PAYLOAD","U","21059K","2023-07-26 08:53:49","770816","15.34618097","0.0006519","97.5986","345.4623","136.4673","223.7085","0","999","11540","0.0013177","0.00044352","0","3963761","0 SPACEBEE-103","1 48888U 21059K   23207.37071494  .00044352  00000-0  13177-2 0  9991","2 48888  97.5986 345.4623 0006519 136.4673 223.7085 15.34618097115402","2021-059K","48888","6840.192","93.834","466.516","457.598","0"
"GENERATED VIA SPACETRACK.ORG API","18 SPCS","48888","SPACEBEE-103","PAYLOAD","U","21059K","2023-07-26 15:09:24","374304","15.34642338","0.0006497","97.5986","345.7309","135.9621","224.214","0","999","11544","0.0013854","0.00046685","0","3963989","0 SPACEBEE-103","1 48888U 21059K   23207.63153211  .00046685  00000-0  13854-2 0  9991","2 48888  97.5986 345.7309 0006497 135.9621 224.2140 15.34642338115445","2021-059K","48888","6840.120","93.833","466.429","457.541","0"
"GENERATED VIA SPACETRACK.ORG API","18 SPCS","48888","SPACEBEE-103","PAYLOAD","U","21059K","2023-07-27 08:22:12","748224","15.34703151","0.000641","97.5986","346.4692","133.8274","226.3499","0","999","11555","0.0011938","0.0004026","0","3964647","0 SPACEBEE-103","1 48888U 21059K   23208.34875866  .00040260  00000-0  11938-2 0  9991","2 48888  97.5986 346.4692 0006410 133.8274 226.3499 15.34703151115557","2021-059K","48888","6839.939","93.829","466.189","457.420","0"
"GENERATED VIA SPACETRACK.ORG API","18 SPCS","48888","SPACEBEE-103","PAYLOAD","U","21059K","2023-07-27 22:27:12","447072","15.34748439","0.0006393","97.5984","347.0734","131.6241","228.555","0","999","11564","0.0011127","0.0003756","0","3965069","0 SPACEBEE-103","1 48888U 21059K   23208.93556073  .00037560  00000-0  11127-2 0  9991","2 48888  97.5984 347.0734 0006393 131.6241 228.5550 15.34748439115649","2021-059K","48888","6839.805","93.826","466.042","457.297","0"
"GENERATED VIA SPACETRACK.ORG API","18 SPCS","48888","SPACEBEE-103","PAYLOAD","U","21059K","2023-07-28 07:50:31","481664","15.34774176","0.0006371","97.5984","347.4763","130.2472","229.9329","0","999","11570","0.0010142","0.0003424","0","3965518","0 SPACEBEE-103","1 48888U 21059K   23209.32675326  .00034240  00000-0  10142-2 0  9996","2 48888  97.5984 347.4763 0006371 130.2472 229.9329 15.34774176115705","2021-059K","48888","6839.728","93.825","465.951","457.236","0"
"GENERATED VIA SPACETRACK.ORG API","18 SPCS","48888","SPACEBEE-103","PAYLOAD","U","21059K","2023-07-29 02:37:07","693248","15.34828948","0.0006328","97.5985","348.282","127.9975","232.184","0","999","11582","0.0010175","0.00034412","0","3966001","0 SPACEBEE-103","1 48888U 21059K   23210.10911682  .00034412  00000-0  10175-2 0  9999","2 48888  97.5985 348.2820 0006328 127.9975 232.1840 15.34828948115826","2021-059K","48888","6839.566","93.822","465.759","457.103","0"
"GENERATED VIA SPACETRACK.ORG API","18 SPCS","48888","SPACEBEE-103","PAYLOAD","U","21059K","2023-07-29 22:57:33","975936","15.34898118","0.0006279","97.5984","349.1549","125.364","234.8191","0","999","11595","0.0011397","0.00038661","0","3966879","0 SPACEBEE-103","1 48888U 21059K   23210.95664324  .00038661  00000-0  11397-2 0  9997","2 48888  97.5984 349.1549 0006279 125.3640 234.8191 15.34898118115957","2021-059K","48888","6839.360","93.817","465.520","456.931","0"
"GENERATED VIA SPACETRACK.ORG API","18 SPCS","48888","SPACEBEE-103","PAYLOAD","U","21059K","2023-07-31 09:22:48","157824","15.35015017","0.0006187","97.599","350.6321","120.338","239.8475","0","999","11617","0.0012419","0.00042312","0","3968010","0 SPACEBEE-103","1 48888U 21059K   23212.39083516  .00042312  00000-0  12419-2 0  9999","2 48888  97.5990 350.6321 0006187 120.3380 239.8475 15.35015017116178","2021-059K","48888","6839.013","93.810","465.109","456.647","0"
"GENERATED VIA SPACETRACK.ORG API","18 SPCS","48888","SPACEBEE-103","PAYLOAD","U","21059K","2023-08-01 08:50:49","664832","15.35090085","0.0006131","97.5995","351.6395","117.0859","243.101","0","999","11632","0.0010951","0.00037365","0","3969073","0 SPACEBEE-103","1 48888U 21059K   23213.36863038  .00037365  00000-0  10951-2 0  9993","2 48888  97.5995 351.6395 0006131 117.0859 243.1010 15.35090085116326","2021-059K","48888","6838.790","93.806","464.848","456.462","0"
"GENERATED VIA SPACETRACK.ORG API","18 SPCS","48888","SPACEBEE-103","PAYLOAD","U","21059K","2023-08-02 20:49:39","565920","15.35221405","0.0005956","97.6003","353.1845","112.4692","247.7181","0","999","11655","0.0014229","0.00048849","0","3970256","0 SPACEBEE-103","1 48888U 21059K   23214.86781905  .00048849  00000-0  14229-2 0  9992","2 48888  97.6003 353.1845 0005956 112.4692 247.7181 15.35221405116558","2021-059K","48888","6838.400","93.798","464.338","456.192","0"
"GENERATED VIA SPACETRACK.ORG API","18 SPCS","48888","SPACEBEE-103","PAYLOAD","U","21059K","2023-08-03 15:35:55","944384","15.35285203","0.000595","97.6006","353.9906","109.6317","250.5568","0","999","11667","0.0011753","0.00040372","0","3970862","0 SPACEBEE-103","1 48888U 21059K   23215.64995306  .00040372  00000-0  11753-2 0  9993","2 48888  97.6006 353.9906 0005950 109.6317 250.5568 15.35285203116673","2021-059K","48888","6838.210","93.794","464.144","456.007","0"
"GENERATED VIA SPACETRACK.ORG API","18 SPCS","48888","SPACEBEE-103","PAYLOAD","U","21059K","2023-08-05 08:16:01","850304","15.35433218","0.0005792","97.6006","355.7379","103.8142","256.3745","0","999","11693","0.0015217","0.00052625","0","3972251","0 SPACEBEE-103","1 48888U 21059K   23217.34446586  .00052625  00000-0  15217-2 0  9996","2 48888  97.6006 355.7379 0005792 103.8142 256.3745 15.35433218116934","2021-059K","48888","6837.771","93.785","463.596","455.676","0"
